NORAD_CAT_ID,OBJECT_NAME,OBJECT_TYPE,EPOCH,MEAN_MOTION,ECCENTRICITY,INCLINATION,RA_OF_ASC_NODE,ARG_OF_PERICENTER,MEAN_ANOMALY,BSTAR,MEAN_MOTION_DOT,MEAN_MOTION_DDOT,TLE_LINE0,TLE_LINE1,TLE_LINE2,SEMIMAJOR_AXIS,PERIOD,APOGEE,PERIGEE,DECAYED
51148.0,STARLINK-3359,PAYLOAD,2022-08-09 21:37:30,15.08847268,0.0001982,53.2165,60.0121,71.9765,288.1443,0.00016866,2.398e-05,0.0,0 STARLINK-3359,1 51148U 22005AW  22221.90105316  .00002398  00000-0  16866-3 0  9994,2 51148  53.2165  60.0121 0001982  71.9765 288.1443 15.08847268 32271,6917.858,95.437,541.094,538.352,0.0
51148.0,STARLINK-3359,PAYLOAD,2022-08-10 13:31:23,15.08828923,0.0002058,53.2157,57.0378,76.6889,283.4333,-0.00020009,-3.47e-05,0.0,0 STARLINK-3359,1 51148U 22005AW  22222.56346157 -.00003470  00000-0 -20009-3 0  9995,2 51148  53.2157  57.0378 0002058  76.6889 283.4333 15.08828923 32370,6917.9140000000025,95.438,541.203,538.356,0.0
51148.0,STARLINK-3359,PAYLOAD,2022-08-10 19:52:55,15.08834703,0.0001961,53.2177,55.8485,74.4345,285.6863,-7.3788e-05,-1.462e-05,0.0,0 STARLINK-3359,1 51148U 22005AW  22222.82842538 -.00001462  00000-0 -73788-4 0  9990,2 51148  53.2177  55.8485 0001961  74.4345 285.6863 15.08834703 31309,6917.897,95.438,541.118,538.405,0.0
51148.0,STARLINK-3359,PAYLOAD,2022-08-11 11:46:47,15.08826016,0.0001732,53.2176,52.875,69.7582,290.3596,0.00017604,2.514e-05,0.0,0 STARLINK-3359,1 51148U 22005AW  22223.49082460  .00002514  00000-0  17604-3 0  9995,2 51148  53.2176  52.8750 0001732  69.7582 290.3596 15.08826016 31401,6917.9230000000025,95.438,540.986,538.59,0.0
51148.0,STARLINK-3359,PAYLOAD,2022-08-11 19:43:42,15.08831404,0.0001761999999999,53.2177,51.3883,70.1836,289.9346,0.00022527,3.298e-05,0.0,0 STARLINK-3359,1 51148U 22005AW  22223.82202464  .00003298  00000-0  22527-3 0  9990,2 51148  53.2177  51.3883 0001762  70.1836 289.9346 15.08831404 32566,6917.906999999997,95.438,540.991,538.553,0.0
51148.0,STARLINK-3359,PAYLOAD,2022-08-12 11:37:34,15.08843686,0.0001784,53.2168,48.4147,69.936,290.1824,0.00025187,3.723e-05,0.0,0 STARLINK-3359,1 51148U 22005AW  22224.48442313  .00003723  00000-0  25187-3 0  9990,2 51148  53.2168  48.4147 0001784  69.9360 290.1824 15.08843686 31556,6917.869000000002,95.437,540.9680000000002,538.5,0.0
51148.0,STARLINK-3359,PAYLOAD,2022-08-12 19:34:30,15.08838877,0.0001778,53.217,46.9277,69.7751,290.3432,0.00014117,1.959e-05,0.0,0 STARLINK-3359,1 51148U 22005AW  22224.81562608  .00001959  00000-0  14117-3 0  9997,2 51148  53.2170  46.9277 0001778  69.7751 290.3432 15.08838877 31600,6917.884,95.438,540.979,538.519,0.0
51148.0,STARLINK-3359,PAYLOAD,2022-08-13 13:03:44,15.08842964,0.0001682,53.2167,43.6563,71.3709,288.7465,4.4307e-05,4.17e-06,0.0,0 STARLINK-3359,1 51148U 22005AW  22225.54426160  .00000417  00000-0  44307-4 0  9993,2 51148  53.2167  43.6563 0001682  71.3709 288.7465 15.08842964 31715,6917.871,95.437,540.9,538.573,0.0
51148.0,STARLINK-3359,PAYLOAD,2022-08-13 19:25:17,15.08834862,0.0001621999999999,53.2177,42.4671,72.874,287.243,2.5141e-06,-2.48e-06,0.0,0 STARLINK-3359,1 51148U 22005AW  22225.80923121 -.00000248  00000-0  25141-5 0  9990,2 51148  53.2177  42.4671 0001622  72.8740 287.2430 15.08834862 31756,6917.896,95.438,540.883,538.639,0.0
51148.0,STARLINK-3359,PAYLOAD,2022-08-14 11:19:08,15.08842673,0.0001479,53.2177,39.493,69.0921,291.0229,1.7576e-05,-8e-08,0.0,0 STARLINK-3359,1 51148U 22005AW  22226.47162525 -.00000008  00000-0  17576-4 0  9993,2 51148  53.2177  39.4930 0001479  69.0921 291.0229 15.08842673 32961,6917.871999999999,95.437,540.76,538.714,0.0
51148.0,STARLINK-3359,PAYLOAD,2022-08-14 19:16:03,15.08844161,0.0001508,53.2178,38.0065,69.6471,290.4683,0.00011197,1.495e-05,0.0,0 STARLINK-3359,1 51148U 22005AW  22226.80282186  .00001495  00000-0  11197-3 0  9998,2 51148  53.2178  38.0065 0001508  69.6471 290.4683 15.08844161 31909,6917.868,95.437,540.776,538.689,0.0
51148.0,STARLINK-3359,PAYLOAD,2022-08-15 17:31:27,15.08841198,0.0001479,53.2178,33.8435,69.7959,290.3193,5.1769e-05,5.36e-06,0.0,0 STARLINK-3359,1 51148U 22005AW  22227.73018417  .00000536  00000-0  51769-4 0  9990,2 51148  53.2178  33.8435 0001479  69.7959 290.3193 15.08841198 32040,6917.877,95.437,540.765,538.719,0.0
51148.0,STARLINK-3359,PAYLOAD,2022-08-16 11:00:42,15.08843549,0.0001514,53.2178,30.5724,78.0199,282.0963,4.3824e-05,4.1e-06,0.0,0 STARLINK-3359,1 51148U 22005AW  22228.45882430  .00000410  00000-0  43824-4 0  9998,2 51148  53.2178  30.5724 0001514  78.0199 282.0963 15.08843549 32151,6917.87,95.437,540.7819999999998,538.687,0.0
51148.0,STARLINK-3359,PAYLOAD,2022-08-16 20:33:01,15.08837939,0.0001623,53.2181,28.7889,69.9138,290.2029,-1.6562e-06,-3.14e-06,0.0,0 STARLINK-3359,1 51148U 22005AW  22228.85626923 -.00000314  00000-0 -16562-5 0  9990,2 51148  53.2181  28.7889 0001623  69.9138 290.2029 15.08837939 33329,6917.887,95.438,540.874,538.629,0.0
51148.0,STARLINK-3359,PAYLOAD,2022-08-17 09:16:06,15.08840697,0.0001565999999999,53.218,26.4104,66.6838,293.4319,6.7148e-05,7.81e-06,0.0,0 STARLINK-3359,1 51148U 22005AW  22229.38618572  .00000781  00000-0  67148-4 0  9991,2 51148  53.2180  26.4104 0001566  66.6838 293.4319 15.08840697 32297,6917.878000000002,95.438,540.827,538.66,0.0
51148.0,STARLINK-3359,PAYLOAD,2022-08-18 10:42:16,15.08841,0.0001537,53.2181,21.6523,65.1145,295.0006,2.2599e-05,7.2e-07,0.0,0 STARLINK-3359,1 51148U 22005AW  22230.44602648  .00000072  00000-0  22599-4 0  9991,2 51148  53.2181  21.6523 0001537  65.1145 295.0006 15.08841000 32451,6917.877,95.437,540.806,538.679,0.0
51148.0,STARLINK-3359,PAYLOAD,2022-08-18 18:39:12,15.08836698,0.0001647,53.2182,20.166,68.7303,291.3865,0.0001197,1.617e-05,0.0,0 STARLINK-3359,1 51148U 22005AW  22230.77722770  .00001617  00000-0  11970-3 0  9992,2 51148  53.2182  20.1660 0001647  68.7303 291.3865 15.08836698 33613,6917.89,95.438,540.895,538.616,0.0
51148.0,STARLINK-3359,PAYLOAD,2022-08-19 02:36:08,15.08832441,0.0001576999999999,53.2179,18.6791,66.5122,293.6035,1.9427e-05,2.1e-07,0.0,0 STARLINK-3359,1 51148U 22005AW  22231.10843365  .00000021  00000-0  19427-4 0  9998,2 51148  53.2179  18.6791 0001577  66.5122 293.6035 15.08832441 33664,6917.903,95.438,540.859,538.678,0.0
51148.0,STARLINK-3359,PAYLOAD,2022-08-19 08:57:41,15.08835557,0.0001460999999999,53.2176,17.4886,63.5821,296.532,2.217300000000001e-05,6.5e-07,0.0,0 STARLINK-3359,1 51148U 22005AW  22231.37339176  .00000065  00000-0  22173-4 0  9997,2 51148  53.2176  17.4886 0001461  63.5821 296.5320 15.08835557 32599,6917.894,95.438,540.77,538.748,0.0
51148.0,STARLINK-3359,PAYLOAD,2022-08-19 13:43:51,15.08783466,0.000199,53.2178,16.5969,69.5926,290.5279,0.00084322,0.00013137,0.0,0 STARLINK-3359,1 51148U 22005AW  22231.57211987  .00013137  00000-0  84322-3 0  9995,2 51148  53.2178  16.5969 0001990  69.5926 290.5279 15.08783466 33737,6918.053000000001,95.441,541.295,538.5419999999998,0.0
51148.0,STARLINK-3359,PAYLOAD,2022-08-20 02:26:55,15.08833916,0.0001609,53.2184,14.2176,65.2711,294.8449,1.7738e-05,-6e-08,0.0,0 STARLINK-3359,1 51148U 22005AW  22232.10203398 -.00000006  00000-0  17738-4 0  9992,2 51148  53.2184  14.2176 0001609  65.2711 294.8449 15.08833916 33812,6917.899,95.438,540.877,538.651,0.0
51148.0,STARLINK-3359,PAYLOAD,2022-08-20 13:34:38,15.08825883,0.0001578,53.2179,12.1354,65.5166,294.5991,-7.8651e-05,-1.539e-05,0.0,0 STARLINK-3359,1 51148U 22005AW  22232.56572422 -.00001539  00000-0 -78651-4 0  9993,2 51148  53.2179  12.1354 0001578  65.5166 294.5991 15.08825883 33883,6917.924,95.438,540.88,538.697,0.0
51148.0,STARLINK-3359,PAYLOAD,2022-08-20 18:20:48,15.08826181,0.0001571999999999,53.2187,11.2443,65.0424,295.0731,-7.2141e-05,-1.435e-05,0.0,0 STARLINK-3359,1 51148U 22005AW  22232.76444537 -.00001435  00000-0 -72141-4 0  9993,2 51148  53.2187  11.2443 0001572  65.0424 295.0731 15.08826181 32808,6917.9230000000025,95.438,540.875,538.7,0.0
51148.0,STARLINK-3359,PAYLOAD,2022-08-21 13:25:25,15.08831854,0.0001638,53.2187,7.676,70.5118,289.6051,-4.5910000000000014e-06,-3.61e-06,0.0,0 STARLINK-3359,1 51148U 22005AW  22233.55932610 -.00000361  00000-0 -45910-5 0  9997,2 51148  53.2187   7.6760 0001638  70.5118 289.6051 15.08831854 32923,6917.905,95.438,540.903,538.637,0.0
51148.0,STARLINK-3359,PAYLOAD,2022-08-21 18:11:35,15.08833999,0.0001695,53.2188,6.784,65.1516,294.9652,5.0284e-06,-2.08e-06,0.0,0 STARLINK-3359,1 51148U 22005AW  22233.75804593 -.00000208  00000-0  50284-5 0  9996,2 51148  53.2188   6.7840 0001695  65.1516 294.9652 15.08833999 32959,6917.899,95.438,540.936,538.591,0.0
51148.0,STARLINK-3359,PAYLOAD,2022-08-22 08:30:03,15.08844268,0.0001541999999999,53.2185,4.1072,65.3962,294.7191,-2.374e-05,-6.66e-06,0.0,0 STARLINK-3359,1 51148U 22005AW  22234.35420205 -.00000666  00000-0 -23740-4 0  9992,2 51148  53.2185   4.1072 0001542  65.3962 294.7191 15.08844268 34154,6917.8669999999975,95.437,540.799,538.6659999999998,0.0
51148.0,STARLINK-3359,PAYLOAD,2022-08-22 16:26:58,15.08835064,0.0001585999999999,53.2185,2.6207,68.8077,291.3085,0.00017424,2.486e-05,0.0,0 STARLINK-3359,1 51148U 22005AW  22234.68540253  .00002486  00000-0  17424-3 0  9995,2 51148  53.2185   2.6207 0001586  68.8077 291.3085 15.08835064 33091,6917.895,95.438,540.8580000000002,538.663,0.0
51148.0,STARLINK-3359,PAYLOAD,2022-08-23 08:20:50,15.08842775,0.0001655,53.2183,359.6468,73.8018,286.3156,9.5431e-05,1.231e-05,0.0,0 STARLINK-3359,1 51148U 22005AW  22235.34780118  .00001231  00000-0  95431-4 0  9997,2 51148  53.2183 359.6468 0001655  73.8018 286.3156 15.08842775 33192,6917.871999999999,95.437,540.882,538.592,0.0
51148.0,STARLINK-3359,PAYLOAD,2022-08-23 16:17:46,15.08834361,0.0001428,53.2184,358.1605,73.208,286.9069,2.3151e-05,8e-07,0.0,0 STARLINK-3359,1 51148U 22005AW  22235.67900777  .00000080  00000-0  23151-4 0  9999,2 51148  53.2184 358.1605 0001428  73.2080 286.9069 15.08834361 33248,6917.898,95.438,540.751,538.775,0.0
